{"type": "FeatureCollection", "features": [ {"type": "Feature", "properties": {"norad_id": 66052, "name": "HRC MONOBLOCK CAMERA", "group": "stations", "lat": 33.51642151449026, "lon": 128.02033331723206, "alt_km": 400.1296081069695, "timestamp": "2025-12-21T18:54:57.256871+00:00", "meta": {"OBJECT_NAME": "HRC MONOBLOCK CAMERA", "OBJECT_ID": "1998-067XR", "EPOCH": "2025-12-21T14:05:45.900384", "MEAN_MOTION": 15.54720233, "ECCENTRICITY": 0.00023274, "INCLINATION": 51.631, "RA_OF_ASC_NODE": 97.3733, "ARG_OF_PERICENTER": 226.367, "MEAN_ANOMALY": 133.7128, "EPHEMERIS_TYPE": 0, "CLASSIFICATION_TYPE": "U", "NORAD_CAT_ID": 66052, "ELEMENT_SET_NO": 999, "REV_AT_EPOCH": 1021, "BSTAR": 0.00047682039, "MEAN_MOTION_DOT": 0.00031903, "MEAN_MOTION_DDOT": 0}, "tle": {"line1": "1 66052U 98067XR  25355.58733681  .00031903  00000+0  47682-3 0  9995", "line2": "2 66052  51.6310  97.3733 0002327 226.3670 133.7128 15.54720233 10210"}}, "geometry": {"type": "Point", "coordinates": [128.02033331723206, 33.51642151449026]}}, {"type": "Feature", "properties": {"norad_id": 66174, "name": "HTV-X1", "group": "stations", "lat": 29.852662803809096, "lon": -109.37573821368642, "alt_km": 415.48814005528493, "timestamp": "2025-12-21T18:54:57.256881+00:00", "meta": {"OBJECT_NAME": "HTV-X1", "OBJECT_ID": "2025-241A", "EPOCH": "2025-12-21T13:40:08.668128", "MEAN_MOTION": 15.49703708, "ECCENTRICITY": 0.00031656, "INCLINATION": 51.6324, "RA_OF_ASC_NODE": 98.7522, "ARG_OF_PERICENTER": 281.5679, "MEAN_ANOMALY": 78.4955, "EPHEMERIS_TYPE": 0, "CLASSIFICATION_TYPE": "U", "NORAD_CAT_ID": 66174, "ELEMENT_SET_NO": 999, "REV_AT_EPOCH": 51, "BSTAR": 0.0001683656, "MEAN_MOTION_DOT": 9.066e-05, "MEAN_MOTION_DDOT": 0}, "tle": {"line1": "1 66174U 25241A   25355.56954477  .00009066  00000+0  16837-3 0  9993", "line2": "2 66174  51.6324  98.7522 0003165 281.5679  78.4955 15.49703708   511"}}, "geometry": {"type": "Point", "coordinates": [-109.37573821368642, 29.852662803809096]}}, {"type": "Feature", "properties": {"norad_id": 66515, "name": "SZ-21 MODULE", "group": "stations", "lat": -40.72888973649825, "lon": -142.0906698035174, "alt_km": 379.94447431871686, "timestamp": "2025-12-21T18:54:57.256891+00:00", "meta": {"OBJECT_NAME": "SZ-21 MODULE", "OBJECT_ID": "2025-246C", "EPOCH": "2025-12-21T02:28:16.865472", "MEAN_MOTION": 15.62895195, "ECCENTRICITY": 0.00053926, "INCLINATION": 41.4772, "RA_OF_ASC_NODE": 325.0132, "ARG_OF_PERICENTER": 304.7401, "MEAN_ANOMALY": 55.2931, "EPHEMERIS_TYPE": 0, "CLASSIFICATION_TYPE": "U", "NORAD_CAT_ID": 66515, "ELEMENT_SET_NO": 999, "REV_AT_EPOCH": 575, "BSTAR": 0.00023274036, "MEAN_MOTION_DOT": 0.00021377, "MEAN_MOTION_DDOT": 0}, "tle": {"line1": "1 66515U 25246C   25355.10297298  .00021377  00000+0  23274-3 0  9990", "line2": "2 66515  41.4772 325.0132 0005392 304.7401  55.2931 15.62895195  5757"}}, "geometry": {"type": "Point", "coordinates": [-142.0906698035174, -40.72888973649825]}}, {"type": "Feature", "properties": {"norad_id": 66645, "name": "SHENZHOU-22", "group": "stations", "lat": -36.064668560967995, "lon": -162.68699860553258, "alt_km": 395.4339871949196, "timestamp": "2025-12-21T18:54:57.256901+00:00", "meta": {"OBJECT_NAME": "SHENZHOU-22", "OBJECT_ID": "2025-272A", "EPOCH": "2025-12-21T13:16:11.322912", "MEAN_MOTION": 15.59533817, "ECCENTRICITY": 0.0007788, "INCLINATION": 41.4687, "RA_OF_ASC_NODE": 323.1886, "ARG_OF_PERICENTER": 108.2472, "MEAN_ANOMALY": 251.9215, "EPHEMERIS_TYPE": 0, "CLASSIFICATION_TYPE": "U", "NORAD_CAT_ID": 66645, "ELEMENT_SET_NO": 999, "REV_AT_EPOCH": 26519, "BSTAR": 0.00020086225, "MEAN_MOTION_DOT": 0.00016128, "MEAN_MOTION_DDOT": 0}, "tle": {"line1": "1 66645U 25272A   25355.55290883  .00016128  00000+0  20086-3 0  9991", "line2": "2 66645  41.4687 323.1886 0007788 108.2472 251.9215 15.59533817265199"}}, "geometry": {"type": "Point", "coordinates": [-162.68699860553258, -36.064668560967995]}}, {"type": "Feature", "properties": {"norad_id": 66664, "name": "SOYUZ-MS 28", "group": "stations", "lat": 29.852661494852015, "lon": -109.37573666751351, "alt_km": 415.48814022384704, "timestamp": "2025-12-21T18:54:57.256910+00:00", "meta": {"OBJECT_NAME": "SOYUZ-MS 28", "OBJECT_ID": "2025-275A", "EPOCH": "2025-12-21T13:40:08.668128", "MEAN_MOTION": 15.49703708, "ECCENTRICITY": 0.00031656, "INCLINATION": 51.6324, "RA_OF_ASC_NODE": 98.7522, "ARG_OF_PERICENTER": 281.5679, "MEAN_ANOMALY": 78.4955, "EPHEMERIS_TYPE": 0, "CLASSIFICATION_TYPE": "U", "NORAD_CAT_ID": 66664, "ELEMENT_SET_NO": 999, "REV_AT_EPOCH": 128, "BSTAR": 0.0001683656, "MEAN_MOTION_DOT": 9.066e-05, "MEAN_MOTION_DDOT": 0}, "tle": {"line1": "1 66664U 25275A   25355.56954477  .00009066  00000+0  16837-3 0  9994", "line2": "2 66664  51.6324  98.7522 0003165 281.5679  78.4955 15.49703708  1280"}}, "geometry": {"type": "Point", "coordinates": [-109.37573666751351, 29.852661494852015]}}, {"type": "Feature", "properties": {"norad_id": 66906, "name": "1998-067XS", "group": "stations", "lat": -21.983409949674975, "lon": -63.81967117997096, "alt_km": 415.1911693357506, "timestamp": "2025-12-21T18:54:57.256920+00:00", "meta": {"OBJECT_NAME": "1998-067XS", "OBJECT_ID": "1998-067XS", "EPOCH": "2025-12-21T11:50:07.455840", "MEAN_MOTION": 15.51010585, "ECCENTRICITY": 0.00029529, "INCLINATION": 51.6316, "RA_OF_ASC_NODE": 98.9926, "ARG_OF_PERICENTER": 243.0961, "MEAN_ANOMALY": 116.9727, "EPHEMERIS_TYPE": 0, "CLASSIFICATION_TYPE": "U", "NORAD_CAT_ID": 66906, "ELEMENT_SET_NO": 999, "REV_AT_EPOCH": 297, "BSTAR": 0.00042361543, "MEAN_MOTION_DOT": 0.00024678, "MEAN_MOTION_DDOT": 0}, "tle": {"line1": "1 66906U 98067XS  25355.49314185  .00024678  00000+0  42362-3 0  9998", "line2": "2 66906  51.6316  98.9926 0002952 243.0961 116.9727 15.51010585  2979"}}, "geometry": {"type": "Point", "coordinates": [-63.81967117997096, -21.983409949674975]}}, {"type": "Feature", "properties": {"norad_id": 66907, "name": "1998-067XT", "group": "stations", "lat": -51.02191563466079, "lon": -4.312549847918764, "alt_km": 411.53726584730794, "timestamp": "2025-12-21T18:54:57.256930+00:00", "meta": {"OBJECT_NAME": "1998-067XT", "OBJECT_ID": "1998-067XT", "EPOCH": "2025-12-21T11:36:33.971328", "MEAN_MOTION": 15.52463027, "ECCENTRICITY": 0.00038794, "INCLINATION": 51.6316, "RA_OF_ASC_NODE": 98.9297, "ARG_OF_PERICENTER": 279.7244, "MEAN_ANOMALY": 80.3308, "EPHEMERIS_TYPE": 0, "CLASSIFICATION_TYPE": "U", "NORAD_CAT_ID": 66907, "ELEMENT_SET_NO": 999, "REV_AT_EPOCH": 297, "BSTAR": 0.00087766366, "MEAN_MOTION_DOT": 0.00054612, "MEAN_MOTION_DDOT": 0}, "tle": {"line1": "1 66907U 98067XT  25355.48372652  .00054612  00000+0  87766-3 0  9999", "line2": "2 66907  51.6316  98.9297 0003879 279.7244  80.3308 15.52463027  2973"}}, "geometry": {"type": "Point", "coordinates": [-4.312549847918764, -51.02191563466079]}}, {"type": "Feature", "properties": {"norad_id": 66908, "name": "1998-067XU", "group": "stations", "lat": -51.545037627627615, "lon": 3.46194626470661, "alt_km": 411.19488697172346, "timestamp": "2025-12-21T18:54:57.256940+00:00", "meta": {"OBJECT_NAME": "1998-067XU", "OBJECT_ID": "1998-067XU", "EPOCH": "2025-12-21T00:46:29.963136", "MEAN_MOTION": 15.52510982, "ECCENTRICITY": 0.00039042, "INCLINATION": 51.6311, "RA_OF_ASC_NODE": 101.1653, "ARG_OF_PERICENTER": 276.2494, "MEAN_ANOMALY": 83.8051, "EPHEMERIS_TYPE": 0, "CLASSIFICATION_TYPE": "U", "NORAD_CAT_ID": 66908, "ELEMENT_SET_NO": 999, "REV_AT_EPOCH": 290, "BSTAR": 0.00080289362, "MEAN_MOTION_DOT": 0.00049977, "MEAN_MOTION_DDOT": 0}, "tle": {"line1": "1 66908U 98067XU  25355.03229124  .00049977  00000+0  80289-3 0  9997", "line2": "2 66908  51.6311 101.1653 0003904 276.2494  83.8051 15.52510982  2909"}}, "geometry": {"type": "Point", "coordinates": [3.46194626470661, -51.545037627627615]}}, {"type": "Feature", "properties": {"norad_id": 66909, "name": "SILVERSAT", "group": "stations", "lat": -51.430368289776986, "lon": 13.90592755093997, "alt_km": 410.7220279800249, "timestamp": "2025-12-21T18:54:57.256952+00:00", "meta": {"OBJECT_NAME": "SILVERSAT", "OBJECT_ID": "1998-067XV", "EPOCH": "2025-12-21T00:44:56.475744", "MEAN_MOTION": 15.52677939, "ECCENTRICITY": 0.0003815, "INCLINATION": 51.6312, "RA_OF_ASC_NODE": 101.1583, "ARG_OF_PERICENTER": 279.3746, "MEAN_ANOMALY": 80.6813, "EPHEMERIS_TYPE": 0, "CLASSIFICATION_TYPE": "U", "NORAD_CAT_ID": 66909, "ELEMENT_SET_NO": 999, "REV_AT_EPOCH": 290, "BSTAR": 0.00085685378, "MEAN_MOTION_DOT": 0.00053716, "MEAN_MOTION_DDOT": 0}, "tle": {"line1": "1 66909U 98067XV  25355.03120921  .00053716  00000+0  85685-3 0  9994", "line2": "2 66909  51.6312 101.1583 0003815 279.3746  80.6813 15.52677939  2905"}}, "geometry": {"type": "Point", "coordinates": [13.90592755093997, -51.430368289776986]}}, {"type": "Feature", "properties": {"norad_id": 66910, "name": "1998-067XW", "group": "stations", "lat": -49.50751733545656, "lon": 29.261904387403078, "alt_km": 410.79674360581794, "timestamp": "2025-12-21T18:54:57.256962+00:00", "meta": {"OBJECT_NAME": "1998-067XW", "OBJECT_ID": "1998-067XW", "EPOCH": "2025-12-21T13:03:49.034592", "MEAN_MOTION": 15.52723142, "ECCENTRICITY": 0.00040923, "INCLINATION": 51.6308, "RA_OF_ASC_NODE": 98.5841, "ARG_OF_PERICENTER": 255.5367, "MEAN_ANOMALY": 104.5169, "EPHEMERIS_TYPE": 0, "CLASSIFICATION_TYPE": "U", "NORAD_CAT_ID": 66910, "ELEMENT_SET_NO": 999, "REV_AT_EPOCH": 298, "BSTAR": 0.00085387417, "MEAN_MOTION_DOT": 0.00053617, "MEAN_MOTION_DDOT": 0}, "tle": {"line1": "1 66910U 98067XW  25355.54431753  .00053617  00000+0  85387-3 0  9999", "line2": "2 66910  51.6308  98.5841 0004092 255.5367 104.5169 15.52723142  2987"}}, "geometry": {"type": "Point", "coordinates": [29.261904387403078, -49.50751733545656]}}]}